CZ-2C R/B               
1 52794U 22058K   25335.38237793  .00033334  00000+0  61260-3 0  9997
2 52794  50.1897 101.4336 0046799 151.5651 208.7885 15.47654033194871
CZ-2C R/B               
1 54039U 22132E   25335.46863529  .00037865  00000+0  58337-3 0  9999
2 54039  97.2947 331.4610 0023956  93.7507 266.6486 15.53756093175088
GSLV R/B                
1 54149U 22138AN  25335.15064935  .00002814  00000+0  24698-3 0  9996
2 54149  87.3840 199.3540 0022959 144.0220 216.2562 14.96033735169197
XRISM                   
1 57800U 23137A   25335.00383751  .00006145  00000+0  36142-3 0  9995
2 57800  31.0006 201.3095 0007603 126.2801 233.8540 15.10172860122852
ACS3                    
1 59588U 24077B   25335.41237163  .00036468  00000+0  31596-1 0  9991
2 59588  97.2795 293.5460 0076301   1.4076 358.7286 13.84668943 80571
