CCSDS_OMM_VERS = 2.0
CREATION_DATE  = 
ORIGINATOR     = 

OBJECT_NAME    = CZ-2C R/B
OBJECT_ID      = 2022-058K
CENTER_NAME    = EARTH
REF_FRAME      = TEME
TIME_SYSTEM    = UTC
MEAN_ELEMENT_THEORY = SGP/SGP4

EPOCH          = 2025-12-01T09:10:37.453152
MEAN_MOTION    = 15.47654033
ECCENTRICITY   = .0046799
INCLINATION    = 50.1897
RA_OF_ASC_NODE = 101.4336
ARG_OF_PERICENTER = 151.5651
MEAN_ANOMALY   = 208.7885

EPHEMERIS_TYPE = 0
CLASSIFICATION_TYPE = U
NORAD_CAT_ID   = 52794
ELEMENT_SET_NO = 999
REV_AT_EPOCH   = 19487
BSTAR          = .6126E-3
MEAN_MOTION_DOT = .33334E-3
MEAN_MOTION_DDOT = 0

CCSDS_OMM_VERS = 2.0
CREATION_DATE  = 
ORIGINATOR     = 

OBJECT_NAME    = CZ-2C R/B
OBJECT_ID      = 2022-132E
CENTER_NAME    = EARTH
REF_FRAME      = TEME
TIME_SYSTEM    = UTC
MEAN_ELEMENT_THEORY = SGP/SGP4

EPOCH          = 2025-12-01T11:14:50.089056
MEAN_MOTION    = 15.53756093
ECCENTRICITY   = .0023956
INCLINATION    = 97.2947
RA_OF_ASC_NODE = 331.4610
ARG_OF_PERICENTER = 93.7507
MEAN_ANOMALY   = 266.6486

EPHEMERIS_TYPE = 0
CLASSIFICATION_TYPE = U
NORAD_CAT_ID   = 54039
ELEMENT_SET_NO = 999
REV_AT_EPOCH   = 17508
BSTAR          = .58337E-3
MEAN_MOTION_DOT = .37865E-3
MEAN_MOTION_DDOT = 0

CCSDS_OMM_VERS = 2.0
CREATION_DATE  = 
ORIGINATOR     = 

OBJECT_NAME    = GSLV R/B
OBJECT_ID      = 2022-138AN
CENTER_NAME    = EARTH
REF_FRAME      = TEME
TIME_SYSTEM    = UTC
MEAN_ELEMENT_THEORY = SGP/SGP4

EPOCH          = 2025-12-01T03:36:56.103840
MEAN_MOTION    = 14.96033735
ECCENTRICITY   = .00229594
INCLINATION    = 87.3840
RA_OF_ASC_NODE = 199.3540
ARG_OF_PERICENTER = 144.0220
MEAN_ANOMALY   = 216.2562

EPHEMERIS_TYPE = 0
CLASSIFICATION_TYPE = U
NORAD_CAT_ID   = 54149
ELEMENT_SET_NO = 999
REV_AT_EPOCH   = 16919
BSTAR          = .24697907E-3
MEAN_MOTION_DOT = .2814E-4
MEAN_MOTION_DDOT = 0

CCSDS_OMM_VERS = 2.0
CREATION_DATE  = 
ORIGINATOR     = 

OBJECT_NAME    = XRISM
OBJECT_ID      = 2023-137A
CENTER_NAME    = EARTH
REF_FRAME      = TEME
TIME_SYSTEM    = UTC
MEAN_ELEMENT_THEORY = SGP/SGP4

EPOCH          = 2025-12-01T00:05:31.560864
MEAN_MOTION    = 15.10172860
ECCENTRICITY   = .00076031
INCLINATION    = 31.0006
RA_OF_ASC_NODE = 201.3095
ARG_OF_PERICENTER = 126.2801
MEAN_ANOMALY   = 233.8540

EPHEMERIS_TYPE = 0
CLASSIFICATION_TYPE = U
NORAD_CAT_ID   = 57800
ELEMENT_SET_NO = 999
REV_AT_EPOCH   = 12285
BSTAR          = .36141881E-3
MEAN_MOTION_DOT = .6145E-4
MEAN_MOTION_DDOT = 0

CCSDS_OMM_VERS = 2.0
CREATION_DATE  = 
ORIGINATOR     = 

OBJECT_NAME    = ACS3
OBJECT_ID      = 2024-077B
CENTER_NAME    = EARTH
REF_FRAME      = TEME
TIME_SYSTEM    = UTC
MEAN_ELEMENT_THEORY = SGP/SGP4

EPOCH          = 2025-12-01T09:53:48.908832
MEAN_MOTION    = 13.84668943
ECCENTRICITY   = .0076301
INCLINATION    = 97.2795
RA_OF_ASC_NODE = 293.5460
ARG_OF_PERICENTER = 1.4076
MEAN_ANOMALY   = 358.7286

EPHEMERIS_TYPE = 0
CLASSIFICATION_TYPE = U
NORAD_CAT_ID   = 59588
ELEMENT_SET_NO = 999
REV_AT_EPOCH   = 8057
BSTAR          = .31596E-1
MEAN_MOTION_DOT = .36468E-3
MEAN_MOTION_DDOT = 0

